TJS-5                   
1 44978U 20002A   26198.76983492 -.00000351  00000+0  00000+0 0  9998
2 44978   0.0709  77.1695 0008031 338.3782 264.6711  1.00271863 24013
GSAT-30                 
1 45026U 20005A   26198.64076368 -.00000174  00000+0  00000+0 0  9991
2 45026   0.0414 239.9663 0003197 209.5349 159.6221  1.00272932 23814
EUTELSAT KONNECT        
1 45027U 20005B   26198.62577419  .00000040  00000+0  00000+0 0  9994
2 45027   0.0667  93.7632 0001966 149.1671 284.9886  1.00270473 24645
JCSAT-17                
1 45245U 20013A   26198.29486829 -.00000324  00000+0  00000+0 0  9998
2 45245   5.3923 357.1562 0003147 127.5157  52.6074  1.00271713 23535
GEO-KOMPSAT-2B          
1 45246U 20013B   26198.64974051  .00000000  00000+0  00000+0 0  9997
2 45246   0.0188 240.0248 0000313 311.6374 105.9677  1.00270882 23583
BEIDOU-3 G2             
1 45344U 20017A   26198.65980323 -.00000150  00000+0  00000+0 0  9997
2 45344   2.9249  47.8427 0001913  58.6833 146.4918  1.00272721 23568
AEHF-6 (USA 298)        
1 45465U 20022B   26198.65164719 -.00000306  00000+0  00000+0 0  9993
2 45465   2.4827 301.5541 0041954  15.4304 350.8340  1.00270567 23329
BEIDOU-3 G3             
1 45807U 20040A   26198.69043185 -.00000364  00000+0  00000+0 0  9994
2 45807   2.5205  67.4905 0002218 308.6424 278.4253  1.00275238 22374
APSTAR-6D               
1 45863U 20045A   26198.65086718 -.00000326  00000+0  00000+0 0  9994
2 45863   0.0417  92.3752 0003023 357.0622 214.3584  1.00282834 22167
KOREASAT 116            
1 45920U 20048A   26198.71364176 -.00000371  00000+0  00000+0 0  9995
2 45920   0.0182 314.3942 0001040 190.2545 163.9266  1.00267308 21946
EXPRESS 103             
1 45985U 20053A   26198.78422841 -.00000289  00000+0  00000+0 0  9991
2 45985   0.0406 244.2007 0000488 187.2824 242.9286  1.00271831 21957
EXPRESS 80              
1 45986U 20053B   26197.95890906  .00000000  00000+0  00000+0 0  9991
2 45986   0.0172  31.6048 0001653 196.4103 131.9709  1.00276846 21923
BSAT-4B                 
1 46112U 20056A   26198.33517197 -.00000360  00000+0  00000+0 0  9997
2 46112   0.0407 141.6153 0004348 347.3846  36.6373  1.00271224 21697
MEV-2                   
1 46113U 20056B   26198.62412750 -.00000021  00000+0  00000+0 0  9993
2 46113   0.0556 255.0697 0000220   5.8120 258.2367  1.00270229 81024
GALAXY 30 (G-30)        
1 46114U 20056C   26198.59960073  .00000000  00000+0  00000+0 0  9992
2 46114   0.0225  59.8270 0002254  58.8872 267.5676  1.00270960 21590
GAOFEN-13 01            
1 46610U 20071A   26198.73239251 -.00000372  00000+0  00000+0 0  9996
2 46610   0.4752  86.0992 0044455 119.9495 111.3333  1.00277046 21220
TIANTONG-1 2            
1 46916U 20082A   26198.50646869 -.00000365  00000+0  00000+0 0  9991
2 46916   0.7551 332.0988 0001257 128.7405 141.7506  1.00272600 20959
LUCAS (JDRS-1)          
1 47202U 20089A   26198.71429808 -.00000244  00000+0  00000+0 0  9998
2 47202   0.0686 268.2633 0001669 180.9376 194.2611  1.00269702 20725
SXM-7                   
1 47240U 20096A   26198.32235574 -.00000215  00000+0  00000+0 0  9998
2 47240   0.0271  97.9904 0003501  21.3110 206.7257  1.00270775  7740
CMS-01                  
1 47256U 20099A   26198.58586340 -.00000174  00000+0  00000+0 0  9990
2 47256   0.0810  90.8071 0003398 175.0160 323.4716  1.00270753 20501
TURKSAT 5A              
1 47306U 21001A   26198.63045420  .00000145  00000+0  00000+0 0  9992
2 47306   0.0157  72.0706 0000159 223.5806 257.6712  1.00271962 20277
TIANTONG-1 3            
1 47321U 21003A   26198.78310541 -.00000162  00000+0  00000+0 0  9996
2 47321   1.7338 341.4184 0003199 143.3270 174.2861  1.00270282 20269
TJS-6                   
1 47613U 21010A   26198.59489302  .00000033  00000+0  00000+0 0  9995
2 47613   0.1736 261.3888 0003071 241.2900 185.3667  1.00273247 20111
SBIRS GEO-5 (USA 315)   
1 48618U 21042A   26198.63316772 -.00000275  00000+0  00000+0 0  9990
2 48618   5.0658 329.3601 0001501 152.1752 135.6530  1.00271363 19070
FENGYUN 4B              
1 48808U 21047A   26198.69660890 -.00000339  00000+0  00000+0 0  9996
2 48808   0.2267  80.0461 0006867 272.8504 297.9386  1.00278349 18873
SXM-8                   
1 48838U 21049A   26198.60748743 -.00000214  00000+0  00000+0 0  9998
2 48838   0.0193  51.3182 0005847 340.3427  37.2988  1.00268602 18880
TIANLIAN 1-05           
1 49011U 21063A   26198.69568459  .00000098  00000+0  00000+0 0  9990
2 49011   1.6707  80.4436 0001106  87.4798  34.8850  1.00273205 18382
STAR ONE D2             
1 49055U 21069A   26198.61017411  .00000000  00000+0  00000+0 0  9996
2 49055   0.0093  20.1111 0002501 117.7182 307.1855  1.00269367 18246
EUTELSAT QUANTUM        
1 49056U 21069B   26198.68794742  .00000117  00000+0  00000+0 0  9992
2 49056   0.0095  27.4944 0002112  82.4519 120.8963  1.00272629 18237
ZHONGXING-2E            
1 49062U 21071A   26198.66608867  .00000000  00000+0  00000+0 0  9993
2 49062   0.0172 238.4800 0001175 260.1785 134.6978  1.00270341 18343
TJS-7                   
1 49115U 21077A   26198.60462742 -.00000133  00000+0  00000+0 0  9990
2 49115   0.2783 263.8334 0002925 112.4716  37.2544  1.00272928  9859
CHINASAT 9B             
1 49125U 21080A   26198.78700543 -.00000323  00000+0  00000+0 0  9999
2 49125   0.0520 245.4964 0002709 245.8201 188.9949  1.00279615 17955
